STARLINK-31626          
1 59392U 24062U   25281.18228424  .00000484  00000+0  28468-4 0  9998
2 59392  53.1599 243.9158 0001290  71.0953 289.0187 15.30189973 86321
STARLINK-31443          
1 59393U 24062V   25281.15382823  .00048877  00000+0  15711-2 0  9993
2 59393  53.1577 231.4820 0002245  91.3039 268.8220 15.31809532 86499
STARLINK-31607          
1 59394U 24062W   25281.18860742  .00001146  00000+0  50814-4 0  9991
2 59394  53.1590 243.9535 0001113  82.5599 277.5529 15.30200107 86314
STARLINK-31608          
1 59397U 24062X   25281.28347241  .00001037  00000+0  47137-4 0  9992
2 59397  53.1603 243.8309 0001248 103.3754 256.7387 15.30192009 86282
STARLINK-31534          
1 59398U 24064A   25281.10081471  .00003633  00000+0  14141-3 0  9998
2 59398  43.0019 197.5470 0001409 288.1549  71.9149 15.27598628 85835
STARLINK-31544          
1 59399U 24064B   25281.15222466  .00001008  00000+0  46115-4 0  9996
2 59399  43.0003 197.9336 0000209 283.1713  76.9115 15.27583201 85894
STARLINK-31545          
1 59400U 24064C   25281.17779803  .00000127  00000+0  14138-4 0  9994
2 59400  43.0009 197.2605 0001003 289.8765  70.1978 15.27572879 85902
STARLINK-31507          
1 59401U 24064D   25281.11881549  .00001598  00000+0  67584-4 0  9996
2 59401  42.9997 197.6690 0001406 266.4868  93.5823 15.27583197 85832
STARLINK-31543          
1 59402U 24064E   25281.14451876  .00002602  00000+0  10402-3 0  9999
2 59402  43.0018 197.8711 0001242 285.4315  74.6399 15.27590958 85898
STARLINK-31366          
1 59403U 24064F   25281.06496874  .00003979  00000+0  15392-3 0  9999
2 59403  42.9988 198.1288 0001452 271.8243  88.2442 15.27609333 85885
STARLINK-31374          
1 59404U 24064G   25281.04440583 -.00002403  00000+0 -77864-4 0  9990
2 59404  43.0014 147.1649 0001274 277.9253  82.1454 15.27559609 86217
STARLINK-31400          
1 59405U 24064H   25281.17004568  .00007851  00000+0  29411-3 0  9998
2 59405  43.0015 197.2052 0001014 268.2029  91.8707 15.27625174 85903
STARLINK-31391          
1 59406U 24064J   25281.10853518  .00012741  00000+0  47154-3 0  9997
2 59406  43.0032 197.6009 0001238 275.9163  84.1547 15.27593798 85892
STARLINK-31387          
1 59407U 24064K   25281.14835684  .00006313  00000+0  23850-3 0  9991
2 59407  43.0022 197.9003 0001481 271.8581  88.2101 15.27612087 85892
STARLINK-31396          
1 59409U 24064M   25281.12027450  .00002442  00000+0  98242-4 0  9992
2 59409  43.0019 187.2967 0001385 289.8190  70.2512 15.27583674 85952
STARLINK-31412          
1 59410U 24064N   25281.19189229  .00008970  00000+0  33468-3 0  9994
2 59410  43.0006 197.3561 0001341 274.2708  85.7990 15.27619842 85900
