[{"OBJECT_NAME":"STARLINK-31626","OBJECT_ID":"2024-062U","EPOCH":"2025-10-08T04:22:29.358336","MEAN_MOTION":15.30189973,"ECCENTRICITY":0.000129,"INCLINATION":53.1599,"RA_OF_ASC_NODE":243.9158,"ARG_OF_PERICENTER":71.0953,"MEAN_ANOMALY":289.0187,"EPHEMERIS_TYPE":0,"CLASSIFICATION_TYPE":"U","NORAD_CAT_ID":59392,"ELEMENT_SET_NO":999,"REV_AT_EPOCH":8632,"BSTAR":2.8467786e-5,"MEAN_MOTION_DOT":4.84e-6,"MEAN_MOTION_DDOT":0},{"OBJECT_NAME":"STARLINK-31443","OBJECT_ID":"2024-062V","EPOCH":"2025-10-08T03:41:30.759072","MEAN_MOTION":15.31809532,"ECCENTRICITY":0.0002245,"INCLINATION":53.1577,"RA_OF_ASC_NODE":231.482,"ARG_OF_PERICENTER":91.3039,"MEAN_ANOMALY":268.822,"EPHEMERIS_TYPE":0,"CLASSIFICATION_TYPE":"U","NORAD_CAT_ID":59393,"ELEMENT_SET_NO":999,"REV_AT_EPOCH":8649,"BSTAR":0.0015710977,"MEAN_MOTION_DOT":0.00048877,"MEAN_MOTION_DDOT":0},{"OBJECT_NAME":"STARLINK-31607","OBJECT_ID":"2024-062W","EPOCH":"2025-10-08T04:31:35.681088","MEAN_MOTION":15.30200107,"ECCENTRICITY":0.00011139,"INCLINATION":53.159,"RA_OF_ASC_NODE":243.9535,"ARG_OF_PERICENTER":82.5599,"MEAN_ANOMALY":277.5529,"EPHEMERIS_TYPE":0,"CLASSIFICATION_TYPE":"U","NORAD_CAT_ID":59394,"ELEMENT_SET_NO":999,"REV_AT_EPOCH":8631,"BSTAR":5.0814346e-5,"MEAN_MOTION_DOT":1.146e-5,"MEAN_MOTION_DDOT":0},{"OBJECT_NAME":"STARLINK-31608","OBJECT_ID":"2024-062X","EPOCH":"2025-10-08T06:48:12.016224","MEAN_MOTION":15.30192009,"ECCENTRICITY":0.00012482,"INCLINATION":53.1603,"RA_OF_ASC_NODE":243.8309,"ARG_OF_PERICENTER":103.3754,"MEAN_ANOMALY":256.7387,"EPHEMERIS_TYPE":0,"CLASSIFICATION_TYPE":"U","NORAD_CAT_ID":59397,"ELEMENT_SET_NO":999,"REV_AT_EPOCH":8628,"BSTAR":4.7137118e-5,"MEAN_MOTION_DOT":1.037e-5,"MEAN_MOTION_DDOT":0},{"OBJECT_NAME":"STARLINK-31534","OBJECT_ID":"2024-064A","EPOCH":"2025-10-08T02:25:10.390944","MEAN_MOTION":15.27598628,"ECCENTRICITY":0.00014096,"INCLINATION":43.0019,"RA_OF_ASC_NODE":197.547,"ARG_OF_PERICENTER":288.1549,"MEAN_ANOMALY":71.9149,"EPHEMERIS_TYPE":0,"CLASSIFICATION_TYPE":"U","NORAD_CAT_ID":59398,"ELEMENT_SET_NO":999,"REV_AT_EPOCH":8583,"BSTAR":0.00014141243,"MEAN_MOTION_DOT":3.633e-5,"MEAN_MOTION_DDOT":0},{"OBJECT_NAME":"STARLINK-31544","OBJECT_ID":"2024-064B","EPOCH":"2025-10-08T03:39:12.210624","MEAN_MOTION":15.27583201,"ECCENTRICITY":2.09e-5,"INCLINATION":43.0003,"RA_OF_ASC_NODE":197.9336,"ARG_OF_PERICENTER":283.1713,"MEAN_ANOMALY":76.9115,"EPHEMERIS_TYPE":0,"CLASSIFICATION_TYPE":"U","NORAD_CAT_ID":59399,"ELEMENT_SET_NO":999,"REV_AT_EPOCH":8589,"BSTAR":4.6114819e-5,"MEAN_MOTION_DOT":1.008e-5,"MEAN_MOTION_DDOT":0},{"OBJECT_NAME":"STARLINK-31545","OBJECT_ID":"2024-064C","EPOCH":"2025-10-08T04:16:01.749792","MEAN_MOTION":15.27572879,"ECCENTRICITY":0.00010033,"INCLINATION":43.0009,"RA_OF_ASC_NODE":197.2605,"ARG_OF_PERICENTER":289.8765,"MEAN_ANOMALY":70.1978,"EPHEMERIS_TYPE":0,"CLASSIFICATION_TYPE":"U","NORAD_CAT_ID":59400,"ELEMENT_SET_NO":999,"REV_AT_EPOCH":8590,"BSTAR":1.4137513e-5,"MEAN_MOTION_DOT":1.27e-6,"MEAN_MOTION_DDOT":0},{"OBJECT_NAME":"STARLINK-31507","OBJECT_ID":"2024-064D","EPOCH":"2025-10-08T02:51:05.658336","MEAN_MOTION":15.27583197,"ECCENTRICITY":0.00014064,"INCLINATION":42.9997,"RA_OF_ASC_NODE":197.669,"ARG_OF_PERICENTER":266.4868,"MEAN_ANOMALY":93.5823,"EPHEMERIS_TYPE":0,"CLASSIFICATION_TYPE":"U","NORAD_CAT_ID":59401,"ELEMENT_SET_NO":999,"REV_AT_EPOCH":8583,"BSTAR":6.7584366e-5,"MEAN_MOTION_DOT":1.598e-5,"MEAN_MOTION_DDOT":0},{"OBJECT_NAME":"STARLINK-31543","OBJECT_ID":"2024-064E","EPOCH":"2025-10-08T03:28:06.420864","MEAN_MOTION":15.27590958,"ECCENTRICITY":0.00012421,"INCLINATION":43.0018,"RA_OF_ASC_NODE":197.8711,"ARG_OF_PERICENTER":285.4315,"MEAN_ANOMALY":74.6399,"EPHEMERIS_TYPE":0,"CLASSIFICATION_TYPE":"U","NORAD_CAT_ID":59402,"ELEMENT_SET_NO":999,"REV_AT_EPOCH":8589,"BSTAR":0.00010401916,"MEAN_MOTION_DOT":2.602e-5,"MEAN_MOTION_DDOT":0},{"OBJECT_NAME":"STARLINK-31366","OBJECT_ID":"2024-064F","EPOCH":"2025-10-08T01:33:33.299136","MEAN_MOTION":15.27609333,"ECCENTRICITY":0.00014521,"INCLINATION":42.9988,"RA_OF_ASC_NODE":198.1288,"ARG_OF_PERICENTER":271.8243,"MEAN_ANOMALY":88.2442,"EPHEMERIS_TYPE":0,"CLASSIFICATION_TYPE":"U","NORAD_CAT_ID":59403,"ELEMENT_SET_NO":999,"REV_AT_EPOCH":8588,"BSTAR":0.00015391874,"MEAN_MOTION_DOT":3.979e-5,"MEAN_MOTION_DDOT":0},{"OBJECT_NAME":"STARLINK-31374","OBJECT_ID":"2024-064G","EPOCH":"2025-10-08T01:03:56.663712","MEAN_MOTION":15.27559609,"ECCENTRICITY":0.00012744,"INCLINATION":43.0014,"RA_OF_ASC_NODE":147.1649,"ARG_OF_PERICENTER":277.9253,"MEAN_ANOMALY":82.1454,"EPHEMERIS_TYPE":0,"CLASSIFICATION_TYPE":"U","NORAD_CAT_ID":59404,"ELEMENT_SET_NO":999,"REV_AT_EPOCH":8621,"BSTAR":-7.7863632e-5,"MEAN_MOTION_DOT":-2.403e-5,"MEAN_MOTION_DDOT":0},{"OBJECT_NAME":"STARLINK-31400","OBJECT_ID":"2024-064H","EPOCH":"2025-10-08T04:04:51.946752","MEAN_MOTION":15.27625174,"ECCENTRICITY":0.0001014,"INCLINATION":43.0015,"RA_OF_ASC_NODE":197.2052,"ARG_OF_PERICENTER":268.2029,"MEAN_ANOMALY":91.8707,"EPHEMERIS_TYPE":0,"CLASSIFICATION_TYPE":"U","NORAD_CAT_ID":59405,"ELEMENT_SET_NO":999,"REV_AT_EPOCH":8590,"BSTAR":0.0002941071,"MEAN_MOTION_DOT":7.851e-5,"MEAN_MOTION_DDOT":0},{"OBJECT_NAME":"STARLINK-31391","OBJECT_ID":"2024-064J","EPOCH":"2025-10-08T02:36:17.439552","MEAN_MOTION":15.27593798,"ECCENTRICITY":0.0001238,"INCLINATION":43.0032,"RA_OF_ASC_NODE":197.6009,"ARG_OF_PERICENTER":275.9163,"MEAN_ANOMALY":84.1547,"EPHEMERIS_TYPE":0,"CLASSIFICATION_TYPE":"U","NORAD_CAT_ID":59406,"ELEMENT_SET_NO":999,"REV_AT_EPOCH":8589,"BSTAR":0.00047153715,"MEAN_MOTION_DOT":0.00012741,"MEAN_MOTION_DDOT":0},{"OBJECT_NAME":"STARLINK-31387","OBJECT_ID":"2024-064K","EPOCH":"2025-10-08T03:33:38.030976","MEAN_MOTION":15.27612087,"ECCENTRICITY":0.00014817,"INCLINATION":43.0022,"RA_OF_ASC_NODE":197.9003,"ARG_OF_PERICENTER":271.8581,"MEAN_ANOMALY":88.2101,"EPHEMERIS_TYPE":0,"CLASSIFICATION_TYPE":"U","NORAD_CAT_ID":59407,"ELEMENT_SET_NO":999,"REV_AT_EPOCH":8589,"BSTAR":0.00023850396,"MEAN_MOTION_DOT":6.313e-5,"MEAN_MOTION_DDOT":0},{"OBJECT_NAME":"STARLINK-31396","OBJECT_ID":"2024-064M","EPOCH":"2025-10-08T02:53:11.716800","MEAN_MOTION":15.27583674,"ECCENTRICITY":0.00013858,"INCLINATION":43.0019,"RA_OF_ASC_NODE":187.2967,"ARG_OF_PERICENTER":289.819,"MEAN_ANOMALY":70.2512,"EPHEMERIS_TYPE":0,"CLASSIFICATION_TYPE":"U","NORAD_CAT_ID":59409,"ELEMENT_SET_NO":999,"REV_AT_EPOCH":8595,"BSTAR":9.8241876e-5,"MEAN_MOTION_DOT":2.442e-5,"MEAN_MOTION_DDOT":0},{"OBJECT_NAME":"STARLINK-31412","OBJECT_ID":"2024-064N","EPOCH":"2025-10-08T04:36:19.493856","MEAN_MOTION":15.27619842,"ECCENTRICITY":0.00013411,"INCLINATION":43.0006,"RA_OF_ASC_NODE":197.3561,"ARG_OF_PERICENTER":274.2708,"MEAN_ANOMALY":85.799,"EPHEMERIS_TYPE":0,"CLASSIFICATION_TYPE":"U","NORAD_CAT_ID":59410,"ELEMENT_SET_NO":999,"REV_AT_EPOCH":8590,"BSTAR":0.00033467589,"MEAN_MOTION_DOT":8.97e-5,"MEAN_MOTION_DDOT":0}]
